OBJECT_NAME,OBJECT_ID,EPOCH,MEAN_MOTION,ECCENTRICITY,INCLINATION,RA_OF_ASC_NODE,ARG_OF_PERICENTER,MEAN_ANOMALY,EPHEMERIS_TYPE,CLASSIFICATION_TYPE,NORAD_CAT_ID,ELEMENT_SET_NO,REV_AT_EPOCH,BSTAR,MEAN_MOTION_DOT,MEAN_MOTION_DDOT
ASNARO-2,2018-007A,2026-05-18T22:29:43.716192,15.22440188,.00017523,97.3981,146.3201,92.3073,267.8364,0,U,43152,999,46296,.24517836E-3,.5602E-4,0
JILIN-1 07,2018-008E,2026-05-18T22:38:05.831520,15.34192451,.00092858,97.1784,159.6612,151.4987,208.6766,0,U,43159,999,46051,.17843578E-3,.5836E-4,0
JILIN-1 08,2018-008F,2026-05-18T22:12:37.121760,15.33300946,.00066647,97.1814,158.9889,161.3690,198.7798,0,U,43160,999,46046,.15406593E-3,.4884E-4,0
LEMUR-2-KADI,2018-014E,2026-05-18T13:10:29.772480,15.88214064,.00046364,97.4482,68.2579,117.9972,242.1769,0,U,43184,999,45637,.11138342E-2,.313905E-2,0
S-NET D,2018-014G,2026-05-18T12:08:27.787488,15.16363063,.00099097,97.5387,43.4855,115.8448,244.3808,0,U,43186,999,45426,.16121633E-3,.3064E-4,0
S-NET B,2018-014H,2026-05-18T12:24:07.293312,15.16333704,.0010602,97.5393,43.4820,112.2144,248.0215,0,U,43187,999,45426,.14488017E-3,.2744E-4,0
S-NET A,2018-014J,2026-05-18T05:46:58.067040,15.16368212,.00104781,97.5403,43.4112,113.5751,246.6584,0,U,43188,999,45422,.15909411E-3,.3023E-4,0
S-NET C,2018-014K,2026-05-18T23:34:39.791136,15.16328153,.0011975,97.5419,44.2181,105.8071,254.4483,0,U,43189,999,45288,.16126382E-3,.3063E-4,0
PAZ,2018-020A,2026-05-18T22:15:23.332896,15.19150015,.00016512,97.4455,146.7290,88.6414,271.5010,0,U,43215,999,45656,.57140722E-4,.1133E-4,0
GOES 17,2018-022A,2026-05-18T20:44:32.534016,1.00271504,.00003572,0.8644,86.1000,312.6626,59.4328,0,U,43226,999,3013,0,-.181E-5,0
LKW-4,2018-025A,2026-05-18T17:17:31.819488,15.59858439,.00028981,97.6337,307.3452,70.6294,289.5275,0,U,43236,999,45543,.31055402E-3,.24876E-3,0
ZHUHAI-1 OVS-02,2018-040B,2026-05-18T23:06:45.176832,15.24595570,.00041665,97.0402,157.9330,34.2465,325.9042,0,U,43440,999,44826,.18486478E-3,.4492E-4,0
ZHUHAI-1 OHS-02,2018-040C,2026-05-18T23:08:22.084800,15.25414208,.000848,97.0387,164.8446,347.6702,12.4328,0,U,43441,999,10982,.20395623E-3,.509E-4,0
GAOFEN-6,2018-048A,2026-05-18T22:22:50.914272,14.76592053,.00104891,97.7774,202.6856,270.2031,89.7977,0,U,43484,999,42907,.26139426E-4,.133E-5,0
LUOJIA-1 01,2018-048B,2026-05-18T23:23:07.634688,14.87162389,.00082032,97.8107,217.6327,208.7489,151.3276,0,U,43485,999,42987,.15232843E-3,.1316E-4,0
PAKTES 1A,2018-056A,2026-05-18T21:37:29.036064,14.98922518,.00215544,98.1226,294.1465,203.8155,156.2071,0,U,43529,999,42753,.17981933E-3,.2118E-4,0
PRSS-1,2018-056B,2026-05-18T22:53:43.965312,14.81937857,.0001869,97.7832,207.6319,91.1203,269.0224,0,U,43530,999,42410,.93984889E-4,.693E-5,0
HAIYANG-1C,2018-068A,2026-05-18T22:37:58.377792,14.34168081,.00109185,98.5200,211.6717,174.8945,185.2353,0,U,43609,999,40289,-.3233721E-4,-.134E-5,0
SSTL S1-4,2018-071A,2026-05-18T22:18:11.454336,14.96177585,.00013442,97.5065,11.7548,77.9343,282.2029,0,U,43618,999,41856,.98587406E-4,.1056E-4,0
HAIYANG-2B,2018-081A,2026-05-18T22:19:03.387648,13.79305925,.00015025,99.3288,148.1270,46.1745,313.9531,0,U,43655,999,38089,-.20859935E-3,-.258E-5,0
CFOSAT,2018-083A,2026-05-18T22:15:05.734080,15.16502777,.00015567,97.3609,144.3201,61.9070,298.2320,0,U,43662,999,41800,.10478045E-3,.1976E-4,0
TEN-KOH,2018-084G,2026-05-18T11:53:08.957184,15.02785927,.00088413,98.0751,329.6111,213.2577,146.8093,0,U,43677,999,41170,.81509764E-4,.1024E-4,0
DIWATA-2B,2018-084H,2026-05-18T21:25:07.578912,15.00297660,.00116954,98.1107,333.8420,271.6765,88.3118,0,U,43678,999,41182,.17946547E-3,.2186E-4,0
STARS-AO,2018-084J,2026-05-18T12:29:35.116512,15.16691941,.00006386,98.0526,350.6671,254.8333,105.2828,0,U,43679,999,41297,.20213345E-3,.3884E-4,0
AUTCUBE 2,2018-084K,2026-05-18T11:25:53.931360,15.09864927,.0010035,98.0728,343.0773,137.1335,223.0677,0,U,43681,999,41244,.12436964E-3,.1944E-4,0
METOP-C,2018-087A,2026-05-18T20:34:21.007776,14.21503370,.00004698,98.6659,198.9942,145.6918,214.4290,0,U,43689,999,39066,.53017801E-4,.73E-6,0
ES'HAIL 2,2018-090A,2026-05-18T21:17:21.884640,1.00269621,.00012663,0.0144,324.8066,124.0110,132.8873,0,U,43700,999,2738,0,0,0
MOHAMMED VI-B,2018-095A,2026-05-18T23:31:38.201664,14.77075600,.00012623,97.9566,211.7056,80.5154,279.6199,0,U,43717,999,40387,.837574E-4,.541E-5,0
HYSIS,2018-096A,2026-05-18T23:28:24.079872,14.78626066,.00009779,97.9852,205.9521,112.9649,247.1665,0,U,43719,999,40310,.50646226E-4,.319E-5,0
