ASNARO-2                
1 43152U 18007A   26138.93731153  .00005602  00000+0  24518-3 0  9998
2 43152  97.3981 146.3201 0001752  92.3073 267.8364 15.22440188462968
JILIN-1 07              
1 43159U 18008E   26138.94312305  .00005836  00000+0  17844-3 0  9994
2 43159  97.1784 159.6612 0009285 151.4987 208.6766 15.34192451460515
JILIN-1 08              
1 43160U 18008F   26138.92542965  .00004884  00000+0  15407-3 0  9996
2 43160  97.1814 158.9889 0006664 161.3690 198.7798 15.33300946460465
LEMUR-2-KADI            
1 43184U 18014E   26138.54895570  .00313905  00000+0  11138-2 0  9993
2 43184  97.4482  68.2579 0004636 117.9972 242.1769 15.88214064456373
S-NET D                 
1 43186U 18014G   26138.50587717  .00003064  00000+0  16122-3 0  9993
2 43186  97.5387  43.4855 0009909 115.8448 244.3808 15.16363063454264
S-NET B                 
1 43187U 18014H   26138.51675108  .00002744  00000+0  14488-3 0  9994
2 43187  97.5393  43.4820 0010602 112.2144 248.0215 15.16333704454262
S-NET A                 
1 43188U 18014J   26138.24094985  .00003023  00000+0  15909-3 0  9993
2 43188  97.5403  43.4112 0010478 113.5751 246.6584 15.16368212454229
S-NET C                 
1 43189U 18014K   26138.98240499  .00003063  00000+0  16126-3 0  9994
2 43189  97.5419  44.2181 0011975 105.8071 254.4483 15.16328153452889
PAZ                     
1 43215U 18020A   26138.92735339  .00001133  00000+0  57141-4 0  9996
2 43215  97.4455 146.7290 0001651  88.6414 271.5010 15.19150015456564
GOES 17                 
1 43226U 18022A   26138.86426544 -.00000181  00000+0  00000+0 0  9998
2 43226   0.8644  86.1000 0000357 312.6626  59.4328  1.00271504 30135
LKW-4                   
1 43236U 18025A   26138.72050717  .00024876  00000+0  31055-3 0  9996
2 43236  97.6337 307.3452 0002898  70.6294 289.5275 15.59858439455430
ZHUHAI-1 OVS-02         
1 43440U 18040B   26138.96302288  .00004492  00000+0  18486-3 0  9994
2 43440  97.0402 157.9330 0004166  34.2465 325.9042 15.24595570448260
ZHUHAI-1 OHS-02         
1 43441U 18040C   26138.96414450  .00005090  00000+0  20396-3 0  9998
2 43441  97.0387 164.8446 0008480 347.6702  12.4328 15.25414208109826
GAOFEN-6                
1 43484U 18048A   26138.93253373  .00000133  00000+0  26139-4 0  9990
2 43484  97.7774 202.6856 0010489 270.2031  89.7977 14.76592053429073
LUOJIA-1 01             
1 43485U 18048B   26138.97439392  .00001316  00000+0  15233-3 0  9998
2 43485  97.8107 217.6327 0008203 208.7489 151.3276 14.87162389429871
PAKTES 1A               
1 43529U 18056A   26138.90103051  .00002118  00000+0  17982-3 0  9993
2 43529  98.1226 294.1465 0021554 203.8155 156.2071 14.98922518427537
PRSS-1                  
1 43530U 18056B   26138.95398108  .00000693  00000+0  93985-4 0  9993
2 43530  97.7832 207.6319 0001869  91.1203 269.0224 14.81937857424100
HAIYANG-1C              
1 43609U 18068A   26138.94303678 -.00000134  00000+0 -32337-4 0  9996
2 43609  98.5200 211.6717 0010918 174.8945 185.2353 14.34168081402896
SSTL S1-4               
1 43618U 18071A   26138.92929924  .00001056  00000+0  98587-4 0  9997
2 43618  97.5065  11.7548 0001344  77.9343 282.2029 14.96177585418569
HAIYANG-2B              
1 43655U 18081A   26138.92990032 -.00000258  00000+0 -20860-3 0  9990
2 43655  99.3288 148.1270 0001502  46.1745 313.9531 13.79305925380899
CFOSAT                  
1 43662U 18083A   26138.92714970  .00001976  00000+0  10478-3 0  9995
2 43662  97.3609 144.3201 0001556  61.9070 298.2320 15.16502777418002
TEN-KOH                 
1 43677U 18084G   26138.49524256  .00001024  00000+0  81510-4 0  9990
2 43677  98.0751 329.6111 0008841 213.2577 146.8093 15.02785927411700
DIWATA-2B               
1 43678U 18084H   26138.89244883  .00002186  00000+0  17947-3 0  9992
2 43678  98.1107 333.8420 0011695 271.6765  88.3118 15.00297660411826
STARS-AO                
1 43679U 18084J   26138.52054533  .00003884  00000+0  20213-3 0  9990
2 43679  98.0526 350.6671 0000638 254.8333 105.2828 15.16691941412976
AUTCUBE 2               
1 43681U 18084K   26138.47631865  .00001944  00000+0  12437-3 0  9990
2 43681  98.0728 343.0773 0010035 137.1335 223.0677 15.09864927412440
METOP-C                 
1 43689U 18087A   26138.85718759  .00000073  00000+0  53018-4 0  9994
2 43689  98.6659 198.9942 0000469 145.6918 214.4290 14.21503370390662
ES'HAIL 2               
1 43700U 18090A   26138.88705885  .00000000  00000+0  00000+0 0  9999
2 43700   0.0144 324.8066 0001266 124.0110 132.8873  1.00269621 27387
MOHAMMED VI-B           
1 43717U 18095A   26138.98030326  .00000541  00000+0  83757-4 0  9999
2 43717  97.9566 211.7056 0001262  80.5154 279.6199 14.77075600403874
HYSIS                   
1 43719U 18096A   26138.97805648  .00000319  00000+0  50646-4 0  9992
2 43719  97.9852 205.9521 0000977 112.9649 247.1665 14.78626066403100
